[{"OBJECT_NAME":"STARLINK-34323","OBJECT_ID":"2025-117S","EPOCH":"2025-09-21T22:50:55.019616","MEAN_MOTION":15.30218734,"ECCENTRICITY":0.00011184,"INCLINATION":53.1581,"RA_OF_ASC_NODE":103.2035,"ARG_OF_PERICENTER":78.7184,"MEAN_ANOMALY":281.3943,"EPHEMERIS_TYPE":0,"CLASSIFICATION_TYPE":"U","NORAD_CAT_ID":64219,"ELEMENT_SET_NO":999,"REV_AT_EPOCH":1872,"BSTAR":0.0010152611,"MEAN_MOTION_DOT":0.00029848,"MEAN_MOTION_DDOT":0},{"OBJECT_NAME":"STARLINK-34328","OBJECT_ID":"2025-117T","EPOCH":"2025-09-21T20:04:05.099232","MEAN_MOTION":15.30223968,"ECCENTRICITY":9.567e-5,"INCLINATION":53.1579,"RA_OF_ASC_NODE":103.9034,"ARG_OF_PERICENTER":82.1897,"MEAN_ANOMALY":277.9212,"EPHEMERIS_TYPE":0,"CLASSIFICATION_TYPE":"U","NORAD_CAT_ID":64220,"ELEMENT_SET_NO":999,"REV_AT_EPOCH":1867,"BSTAR":0.0013831522,"MEAN_MOTION_DOT":0.00040862,"MEAN_MOTION_DDOT":0},{"OBJECT_NAME":"STARLINK-34326","OBJECT_ID":"2025-117U","EPOCH":"2025-09-21T20:07:07.453344","MEAN_MOTION":15.30217469,"ECCENTRICITY":6.393e-5,"INCLINATION":53.1581,"RA_OF_ASC_NODE":103.9194,"ARG_OF_PERICENTER":8.0748,"MEAN_ANOMALY":352.0263,"EPHEMERIS_TYPE":0,"CLASSIFICATION_TYPE":"U","NORAD_CAT_ID":64221,"ELEMENT_SET_NO":999,"REV_AT_EPOCH":1870,"BSTAR":0.0012459054,"MEAN_MOTION_DOT":0.00036744,"MEAN_MOTION_DDOT":0},{"OBJECT_NAME":"STARLINK-34318","OBJECT_ID":"2025-117V","EPOCH":"2025-09-21T20:17:45.638304","MEAN_MOTION":15.3022177,"ECCENTRICITY":0.00014342,"INCLINATION":53.1576,"RA_OF_ASC_NODE":103.9627,"ARG_OF_PERICENTER":74.8569,"MEAN_ANOMALY":285.259,"EPHEMERIS_TYPE":0,"CLASSIFICATION_TYPE":"U","NORAD_CAT_ID":64222,"ELEMENT_SET_NO":999,"REV_AT_EPOCH":1867,"BSTAR":0.0013382519,"MEAN_MOTION_DOT":0.00039514,"MEAN_MOTION_DDOT":0},{"OBJECT_NAME":"STARLINK-34337","OBJECT_ID":"2025-117W","EPOCH":"2025-09-22T05:51:11.785824","MEAN_MOTION":15.3021597,"ECCENTRICITY":0.00010543,"INCLINATION":53.1561,"RA_OF_ASC_NODE":102.1791,"ARG_OF_PERICENTER":68.8636,"MEAN_ANOMALY":291.2477,"EPHEMERIS_TYPE":0,"CLASSIFICATION_TYPE":"U","NORAD_CAT_ID":64223,"ELEMENT_SET_NO":999,"REV_AT_EPOCH":1873,"BSTAR":0.00091562956,"MEAN_MOTION_DOT":0.00026871,"MEAN_MOTION_DDOT":0},{"OBJECT_NAME":"STARLINK-34304","OBJECT_ID":"2025-117X","EPOCH":"2025-09-21T19:53:26.947104","MEAN_MOTION":15.30222889,"ECCENTRICITY":0.00017202,"INCLINATION":53.1584,"RA_OF_ASC_NODE":103.8561,"ARG_OF_PERICENTER":113.7191,"MEAN_ANOMALY":246.399,"EPHEMERIS_TYPE":0,"CLASSIFICATION_TYPE":"U","NORAD_CAT_ID":64224,"ELEMENT_SET_NO":999,"REV_AT_EPOCH":1870,"BSTAR":0.0012182872,"MEAN_MOTION_DOT":0.00035923,"MEAN_MOTION_DDOT":0},{"OBJECT_NAME":"STARLINK-34289","OBJECT_ID":"2025-117Y","EPOCH":"2025-09-21T20:08:38.687424","MEAN_MOTION":15.30205795,"ECCENTRICITY":0.00010243,"INCLINATION":53.1579,"RA_OF_ASC_NODE":103.9223,"ARG_OF_PERICENTER":76.4167,"MEAN_ANOMALY":283.6948,"EPHEMERIS_TYPE":0,"CLASSIFICATION_TYPE":"U","NORAD_CAT_ID":64225,"ELEMENT_SET_NO":999,"REV_AT_EPOCH":1870,"BSTAR":0.0012485122,"MEAN_MOTION_DOT":0.00036808,"MEAN_MOTION_DDOT":0},{"OBJECT_NAME":"STARLINK-34347","OBJECT_ID":"2025-117Z","EPOCH":"2025-09-21T20:22:19.210944","MEAN_MOTION":15.30217442,"ECCENTRICITY":0.00011722,"INCLINATION":53.1567,"RA_OF_ASC_NODE":103.9778,"ARG_OF_PERICENTER":89.4175,"MEAN_ANOMALY":270.696,"EPHEMERIS_TYPE":0,"CLASSIFICATION_TYPE":"U","NORAD_CAT_ID":64226,"ELEMENT_SET_NO":999,"REV_AT_EPOCH":1867,"BSTAR":0.0013506038,"MEAN_MOTION_DOT":0.00039878,"MEAN_MOTION_DDOT":0},{"OBJECT_NAME":"STARLINK-34330","OBJECT_ID":"2025-117AA","EPOCH":"2025-09-21T19:59:31.284672","MEAN_MOTION":15.30205284,"ECCENTRICITY":9.534e-5,"INCLINATION":53.1581,"RA_OF_ASC_NODE":103.8789,"ARG_OF_PERICENTER":78.9954,"MEAN_ANOMALY":281.1154,"EPHEMERIS_TYPE":0,"CLASSIFICATION_TYPE":"U","NORAD_CAT_ID":64227,"ELEMENT_SET_NO":999,"REV_AT_EPOCH":1867,"BSTAR":0.00096552382,"MEAN_MOTION_DOT":0.00028351,"MEAN_MOTION_DDOT":0},{"OBJECT_NAME":"STARLINK-34167","OBJECT_ID":"2025-117AB","EPOCH":"2025-09-22T06:19:54.264000","MEAN_MOTION":15.30213585,"ECCENTRICITY":9.167e-5,"INCLINATION":53.1589,"RA_OF_ASC_NODE":101.5894,"ARG_OF_PERICENTER":90.0099,"MEAN_ANOMALY":270.1006,"EPHEMERIS_TYPE":0,"CLASSIFICATION_TYPE":"U","NORAD_CAT_ID":64228,"ELEMENT_SET_NO":999,"REV_AT_EPOCH":1877,"BSTAR":0.00079868973,"MEAN_MOTION_DOT":0.0002338,"MEAN_MOTION_DDOT":0},{"OBJECT_NAME":"STARLINK-34241","OBJECT_ID":"2025-117AC","EPOCH":"2025-09-21T20:16:38.244576","MEAN_MOTION":15.3964969,"ECCENTRICITY":9.387e-5,"INCLINATION":53.1564,"RA_OF_ASC_NODE":104.7245,"ARG_OF_PERICENTER":80.9555,"MEAN_ANOMALY":279.1556,"EPHEMERIS_TYPE":0,"CLASSIFICATION_TYPE":"U","NORAD_CAT_ID":64229,"ELEMENT_SET_NO":999,"REV_AT_EPOCH":1869,"BSTAR":0.0010650523,"MEAN_MOTION_DOT":0.00042481,"MEAN_MOTION_DDOT":0},{"OBJECT_NAME":"STARLINK-11686 [DTC]","OBJECT_ID":"2025-119A","EPOCH":"2025-09-21T22:54:19.592352","MEAN_MOTION":15.70949703,"ECCENTRICITY":0.00016212,"INCLINATION":42.999,"RA_OF_ASC_NODE":146.5025,"ARG_OF_PERICENTER":241.8586,"MEAN_ANOMALY":118.2118,"EPHEMERIS_TYPE":0,"CLASSIFICATION_TYPE":"U","NORAD_CAT_ID":64233,"ELEMENT_SET_NO":999,"REV_AT_EPOCH":1870,"BSTAR":0.0021454985,"MEAN_MOTION_DOT":0.00285842,"MEAN_MOTION_DDOT":0},{"OBJECT_NAME":"STARLINK-11682 [DTC]","OBJECT_ID":"2025-119B","EPOCH":"2025-09-22T00:47:29.891040","MEAN_MOTION":15.7098143,"ECCENTRICITY":0.00053736,"INCLINATION":42.9993,"RA_OF_ASC_NODE":146.239,"ARG_OF_PERICENTER":255.9848,"MEAN_ANOMALY":104.0423,"EPHEMERIS_TYPE":0,"CLASSIFICATION_TYPE":"U","NORAD_CAT_ID":64234,"ELEMENT_SET_NO":999,"REV_AT_EPOCH":1871,"BSTAR":0.0020874515,"MEAN_MOTION_DOT":0.00278331,"MEAN_MOTION_DDOT":0},{"OBJECT_NAME":"STARLINK-11675 [DTC]","OBJECT_ID":"2025-119C","EPOCH":"2025-09-22T00:01:38.083008","MEAN_MOTION":15.70918408,"ECCENTRICITY":0.0002602,"INCLINATION":42.9992,"RA_OF_ASC_NODE":145.982,"ARG_OF_PERICENTER":234.9918,"MEAN_ANOMALY":125.0706,"EPHEMERIS_TYPE":0,"CLASSIFICATION_TYPE":"U","NORAD_CAT_ID":64235,"ELEMENT_SET_NO":999,"REV_AT_EPOCH":1871,"BSTAR":0.0016957745,"MEAN_MOTION_DOT":0.0022385,"MEAN_MOTION_DDOT":0},{"OBJECT_NAME":"STARLINK-11691 [DTC]","OBJECT_ID":"2025-119D","EPOCH":"2025-09-20T23:13:44.858784","MEAN_MOTION":15.70877847,"ECCENTRICITY":0.00021411,"INCLINATION":43.0021,"RA_OF_ASC_NODE":151.9858,"ARG_OF_PERICENTER":257.6798,"MEAN_ANOMALY":102.383,"EPHEMERIS_TYPE":0,"CLASSIFICATION_TYPE":"U","NORAD_CAT_ID":64236,"ELEMENT_SET_NO":999,"REV_AT_EPOCH":1855,"BSTAR":0.0013487278,"MEAN_MOTION_DOT":0.00176622,"MEAN_MOTION_DDOT":0},{"OBJECT_NAME":"STARLINK-11670 [DTC]","OBJECT_ID":"2025-119E","EPOCH":"2025-09-22T06:00:02.999808","MEAN_MOTION":15.70821367,"ECCENTRICITY":0.00017251,"INCLINATION":43.0002,"RA_OF_ASC_NODE":144.7065,"ARG_OF_PERICENTER":270.5291,"MEAN_ANOMALY":328.5661,"EPHEMERIS_TYPE":0,"CLASSIFICATION_TYPE":"U","NORAD_CAT_ID":64237,"ELEMENT_SET_NO":999,"REV_AT_EPOCH":583,"BSTAR":0.0001239125,"MEAN_MOTION_DOT":0.00015468,"MEAN_MOTION_DDOT":0}]
