STARLINK-34323          
1 64219U 25117S   25264.95202569  .00029848  00000+0  10153-2 0  9997
2 64219  53.1581 103.2035 0001118  78.7184 281.3943 15.30218734 18729
STARLINK-34328          
1 64220U 25117T   25264.83617013  .00040862  00000+0  13832-2 0  9996
2 64220  53.1579 103.9034 0000956  82.1897 277.9212 15.30223968 18672
STARLINK-34326          
1 64221U 25117U   25264.83828071  .00036744  00000+0  12459-2 0  9993
2 64221  53.1581 103.9194 0000639   8.0748 352.0263 15.30217469 18707
STARLINK-34318          
1 64222U 25117V   25264.84566711  .00039514  00000+0  13383-2 0  9990
2 64222  53.1576 103.9627 0001434  74.8569 285.2590 15.30221770 18675
STARLINK-34337          
1 64223U 25117W   25265.24388641  .00026871  00000+0  91563-3 0  9999
2 64223  53.1561 102.1791 0001054  68.8636 291.2477 15.30215970 18732
STARLINK-34304          
1 64224U 25117X   25264.82878411  .00035923  00000+0  12183-2 0  9990
2 64224  53.1584 103.8561 0001720 113.7191 246.3990 15.30222889 18702
STARLINK-34289          
1 64225U 25117Y   25264.83933666  .00036808  00000+0  12485-2 0  9994
2 64225  53.1579 103.9223 0001024  76.4167 283.6948 15.30205795 18702
STARLINK-34347          
1 64226U 25117Z   25264.84883346  .00039878  00000+0  13506-2 0  9990
2 64226  53.1567 103.9778 0001172  89.4175 270.6960 15.30217442 18670
STARLINK-34330          
1 64227U 25117AA  25264.83300098  .00028351  00000+0  96552-3 0  9995
2 64227  53.1581 103.8789 0000953  78.9954 281.1154 15.30205284 18675
STARLINK-34167          
1 64228U 25117AB  25265.26382250  .00023380  00000+0  79869-3 0  9993
2 64228  53.1589 101.5894 0000916  90.0099 270.1006 15.30213585 18778
STARLINK-34241          
1 64229U 25117AC  25264.84488709  .00042481  00000+0  10651-2 0  9999
2 64229  53.1564 104.7245 0000938  80.9555 279.1556 15.39649690 18695
STARLINK-11686 [DTC]    
1 64233U 25119A   25264.95439343  .00285842  00000+0  21455-2 0  9992
2 64233  42.9990 146.5025 0001621 241.8586 118.2118 15.70949703 18703
STARLINK-11682 [DTC]    
1 64234U 25119B   25265.03298485  .00278331  00000+0  20875-2 0  9993
2 64234  42.9993 146.2390 0005373 255.9848 104.0423 15.70981430 18710
STARLINK-11675 [DTC]    
1 64235U 25119C   25265.00113522  .00223850  00000+0  16958-2 0  9992
2 64235  42.9992 145.9820 0002602 234.9918 125.0706 15.70918408 18713
STARLINK-11691 [DTC]    
1 64236U 25119D   25263.96788031  .00176622  00000+0  13487-2 0  9997
2 64236  43.0021 151.9858 0002141 257.6798 102.3830 15.70877847 18552
STARLINK-11670 [DTC]    
1 64237U 25119E   25265.25003472  .00015468  00000+0  12391-3 0  9995
2 64237  43.0002 144.7065 0001725 270.5291 328.5661 15.70821367  5838
